start=new Date('2022-12-06T00:00:00.000Z').valueOf();
sats=[{"ECCENTRICITY":"0.00020520","NORAD_CAT_ID":"46333","MEAN_ELEMENT_THEORY":"SGP4","MEAN_MOTION_DOT":"0.00000767","CLASSIFICATION_TYPE":"U","CENTER_NAME":"EARTH","TLE_LINE2":"2 46333  53.0552 318.8194 0002052  46.5192 313.5967 15.06413689125129","RA_OF_ASC_NODE":"318.8194","SEMIMAJOR_AXIS":"6925.307","MEAN_ANOMALY":"313.5967","ARG_OF_PERICENTER":"46.5192","MEAN_MOTION":"15.06413689","BSTAR":"0.00007036000000","OBJECT_ID":"2020-062J","PERIOD":"95.591","MEAN_MOTION_DDOT":"0.0000000000000","REF_FRAME":"TEME","PERIAPSIS":"545.751","OBJECT_NAME":"STARLINK-1723","GP_ID":"219600073","OBJECT_TYPE":"PAYLOAD","RCS_SIZE":"LARGE","LAUNCH_DATE":"2020-09-03","FILE":"3682205","SITE":"AFETR","ELEMENT_SET_NO":"999","TIME_SYSTEM":"UTC","EPHEMERIS_TYPE":"0","INCLINATION":"53.0552","DECAY_DATE":null,"APOAPSIS":"548.593","EPOCH":"2022-12-05T16:06:03.111840","TLE_LINE1":"1 46333U 20062J   22339.67086935  .00000767  00000-0  70360-4 0  9992","COUNTRY_CODE":"US","REV_AT_EPOCH":"12512"},{"ECCENTRICITY":"0.00018120","NORAD_CAT_ID":"46334","MEAN_ELEMENT_THEORY":"SGP4","MEAN_MOTION_DOT":"0.00002352","CENTER_NAME":"EARTH","CLASSIFICATION_TYPE":"U","RA_OF_ASC_NODE":"299.3961","TLE_LINE2":"2 46334  53.0571 299.3961 0001812  59.9144 300.2025 15.06402697125219","SEMIMAJOR_AXIS":"6925.340","MEAN_ANOMALY":"300.2025","ARG_OF_PERICENTER":"59.9144","BSTAR":"0.00017673000000","MEAN_MOTION":"15.06402697","OBJECT_ID":"2020-062K","PERIOD":"95.592","OBJECT_NAME":"STARLINK-1725","PERIAPSIS":"545.950","REF_FRAME":"TEME","MEAN_MOTION_DDOT":"0.0000000000000","GP_ID":"219624619","OBJECT_TYPE":"PAYLOAD","LAUNCH_DATE":"2020-09-03","RCS_SIZE":"LARGE","FILE":"3682465","SITE":"AFETR","ELEMENT_SET_NO":"999","TIME_SYSTEM":"UTC","DECAY_DATE":null,"EPHEMERIS_TYPE":"0","INCLINATION":"53.0571","APOAPSIS":"548.460","EPOCH":"2022-12-05T14:33:13.169952","TLE_LINE1":"1 46334U 20062K   22339.60640243  .00002352  00000-0  17673-3 0  9993","REV_AT_EPOCH":"12521","COUNTRY_CODE":"US"},{"RCS_SIZE":"LARGE","LAUNCH_DATE":"2020-09-03","GP_ID":"219591984","OBJECT_TYPE":"PAYLOAD","SITE":"AFETR","ELEMENT_SET_NO":"999","TIME_SYSTEM":"UTC","FILE":"3682099","APOAPSIS":"548.918","EPHEMERIS_TYPE":"0","INCLINATION":"53.0528","DECAY_DATE":null,"REV_AT_EPOCH":"12491","TLE_LINE1":"1 46335U 20062L   22339.43497610  .00002878  00000-0  21201-3 0  9998","COUNTRY_CODE":"US","EPOCH":"2022-12-05T10:26:21.935040","NORAD_CAT_ID":"46335","MEAN_MOTION_DOT":"0.00002878","MEAN_ELEMENT_THEORY":"SGP4","ECCENTRICITY":"0.00024790","TLE_LINE2":"2 46335  53.0528 319.8934 0002479  43.0997 317.0186 15.06403945124917","RA_OF_ASC_NODE":"319.8934","CLASSIFICATION_TYPE":"U","CENTER_NAME":"EARTH","MEAN_ANOMALY":"317.0186","ARG_OF_PERICENTER":"43.0997","SEMIMAJOR_AXIS":"6925.336","PERIOD":"95.592","MEAN_MOTION_DDOT":"0.0000000000000","REF_FRAME":"TEME","OBJECT_NAME":"STARLINK-1727","PERIAPSIS":"545.485","MEAN_MOTION":"15.06403945","BSTAR":"0.00021201000000","OBJECT_ID":"2020-062L"},{"TLE_LINE2":"2 46336  53.0558 297.8297 0001867  56.0239 304.0927 15.06417348125250","RA_OF_ASC_NODE":"297.8297","CLASSIFICATION_TYPE":"U","CENTER_NAME":"EARTH","NORAD_CAT_ID":"46336","MEAN_ELEMENT_THEORY":"SGP4","MEAN_MOTION_DOT":"0.00009067","ECCENTRICITY":"0.00018670","PERIOD":"95.591","MEAN_MOTION_DDOT":"0.0000000000000","REF_FRAME":"TEME","PERIAPSIS":"545.867","OBJECT_NAME":"STARLINK-1738","MEAN_MOTION":"15.06417348","BSTAR":"0.00062653000000","OBJECT_ID":"2020-062M","MEAN_ANOMALY":"304.0927","ARG_OF_PERICENTER":"56.0239","SEMIMAJOR_AXIS":"6925.295","ELEMENT_SET_NO":"999","SITE":"AFETR","TIME_SYSTEM":"UTC","FILE":"3682465","RCS_SIZE":"LARGE","LAUNCH_DATE":"2020-09-03","GP_ID":"219623124","OBJECT_TYPE":"PAYLOAD","COUNTRY_CODE":"US","TLE_LINE1":"1 46336U 20062M   22339.89018288  .00009067  00000-0  62653-3 0  9992","REV_AT_EPOCH":"12525","EPOCH":"2022-12-05T21:21:51.800832","APOAPSIS":"548.453","INCLINATION":"53.0558","EPHEMERIS_TYPE":"0","DECAY_DATE":null},{"BSTAR":"0.00003899600000","MEAN_MOTION":"15.06406858","OBJECT_ID":"2020-062N","PERIOD":"95.592","OBJECT_NAME":"STARLINK-1750","PERIAPSIS":"545.906","REF_FRAME":"TEME","MEAN_MOTION_DDOT":"0.0000000000000","SEMIMAJOR_AXIS":"6925.328","MEAN_ANOMALY":"305.8369","ARG_OF_PERICENTER":"54.2793","CENTER_NAME":"EARTH","CLASSIFICATION_TYPE":"U","RA_OF_ASC_NODE":"300.4599","TLE_LINE2":"2 46337  53.0553 300.4599 0001858  54.2793 305.8369 15.06406858125171","ECCENTRICITY":"0.00018580","NORAD_CAT_ID":"46337","MEAN_ELEMENT_THEORY":"SGP4","MEAN_MOTION_DOT":"0.00000299","EPOCH":"2022-12-05T07:23:14.396064","REV_AT_EPOCH":"12517","TLE_LINE1":"1 46337U 20062N   22339.30780551  .00000299  00000-0  38996-4 0  9990","COUNTRY_CODE":"US","DECAY_DATE":null,"INCLINATION":"53.0553","EPHEMERIS_TYPE":"0","APOAPSIS":"548.479","FILE":"3682099","SITE":"AFETR","ELEMENT_SET_NO":"999","TIME_SYSTEM":"UTC","GP_ID":"219593481","OBJECT_TYPE":"PAYLOAD","LAUNCH_DATE":"2020-09-03","RCS_SIZE":"LARGE"},{"CLASSIFICATION_TYPE":"U","CENTER_NAME":"EARTH","TLE_LINE2":"2 46338  53.0557 318.7504 0001729  59.1334 300.9825 15.06406338124946","RA_OF_ASC_NODE":"318.7504","ECCENTRICITY":"0.00017290","MEAN_MOTION_DOT":"0.00001839","MEAN_ELEMENT_THEORY":"SGP4","NORAD_CAT_ID":"46338","OBJECT_ID":"2020-062P","MEAN_MOTION":"15.06406338","BSTAR":"0.00014228000000","REF_FRAME":"TEME","MEAN_MOTION_DDOT":"0.0000000000000","OBJECT_NAME":"STARLINK-1752","PERIAPSIS":"545.997","PERIOD":"95.592","SEMIMAJOR_AXIS":"6925.329","ARG_OF_PERICENTER":"59.1334","MEAN_ANOMALY":"300.9825","FILE":"3682465","TIME_SYSTEM":"UTC","SITE":"AFETR","ELEMENT_SET_NO":"999","OBJECT_TYPE":"PAYLOAD","GP_ID":"219624120","RCS_SIZE":"LARGE","LAUNCH_DATE":"2020-09-03","EPOCH":"2022-12-05T16:32:35.153664","COUNTRY_CODE":"US","TLE_LINE1":"1 46338U 20062P   22339.68929576  .00001839  00000-0  14228-3 0  9996","REV_AT_EPOCH":"12494","EPHEMERIS_TYPE":"0","INCLINATION":"53.0557","DECAY_DATE":null,"APOAPSIS":"548.392"},{"APOAPSIS":"548.351","EPHEMERIS_TYPE":"0","INCLINATION":"53.0554","DECAY_DATE":null,"TLE_LINE1":"1 46340U 20062R   22339.66350890  .00000893  00000-0  78817-4 0  9998","REV_AT_EPOCH":"12493","COUNTRY_CODE":"US","EPOCH":"2022-12-05T15:55:27.168960","RCS_SIZE":"LARGE","LAUNCH_DATE":"2020-09-03","OBJECT_TYPE":"PAYLOAD","GP_ID":"219622874","TIME_SYSTEM":"UTC","SITE":"AFETR","ELEMENT_SET_NO":"999","FILE":"3682465","ARG_OF_PERICENTER":"65.6652","MEAN_ANOMALY":"294.4509","SEMIMAJOR_AXIS":"6925.341","MEAN_MOTION_DDOT":"0.0000000000000","REF_FRAME":"TEME","PERIAPSIS":"546.062","OBJECT_NAME":"STARLINK-1759","PERIOD":"95.592","OBJECT_ID":"2020-062R","MEAN_MOTION":"15.06402352","BSTAR":"0.00007881700000","MEAN_ELEMENT_THEORY":"SGP4","MEAN_MOTION_DOT":"0.00000893","NORAD_CAT_ID":"46340","ECCENTRICITY":"0.00016530","TLE_LINE2":"2 46340  53.0554 318.8758 0001653  65.6652 294.4509 15.06402352124936","RA_OF_ASC_NODE":"318.8758","CLASSIFICATION_TYPE":"U","CENTER_NAME":"EARTH"},{"FILE":"3682099","TIME_SYSTEM":"UTC","SITE":"AFETR","ELEMENT_SET_NO":"999","OBJECT_TYPE":"PAYLOAD","GP_ID":"219592982","LAUNCH_DATE":"2020-09-03","RCS_SIZE":"LARGE","EPOCH":"2022-12-05T08:05:42.694080","COUNTRY_CODE":"US","TLE_LINE1":"1 46341U 20062S   22339.33729970  .00001139  00000-0  95387-4 0  9997","REV_AT_EPOCH":"12518","DECAY_DATE":null,"EPHEMERIS_TYPE":"0","INCLINATION":"53.0559","APOAPSIS":"548.543","CENTER_NAME":"EARTH","CLASSIFICATION_TYPE":"U","RA_OF_ASC_NODE":"300.3288","TLE_LINE2":"2 46341  53.0559 300.3288 0001915  45.2734 314.8410 15.06398843125187","ECCENTRICITY":"0.00019150","MEAN_MOTION_DOT":"0.00001139","MEAN_ELEMENT_THEORY":"SGP4","NORAD_CAT_ID":"46341","OBJECT_ID":"2020-062S","BSTAR":"0.00009538700000","MEAN_MOTION":"15.06398843","OBJECT_NAME":"STARLINK-1760","PERIAPSIS":"545.891","MEAN_MOTION_DDOT":"0.0000000000000","REF_FRAME":"TEME","PERIOD":"95.592","SEMIMAJOR_AXIS":"6925.352","ARG_OF_PERICENTER":"45.2734","MEAN_ANOMALY":"314.8410"},{"SEMIMAJOR_AXIS":"6925.339","MEAN_ANOMALY":"313.9883","ARG_OF_PERICENTER":"46.1244","MEAN_MOTION":"15.06403158","BSTAR":"0.00017852000000","OBJECT_ID":"2020-062T","PERIOD":"95.592","REF_FRAME":"TEME","MEAN_MOTION_DDOT":"0.0000000000000","PERIAPSIS":"546.042","OBJECT_NAME":"STARLINK-1762","ECCENTRICITY":"0.00016780","NORAD_CAT_ID":"46342","MEAN_MOTION_DOT":"0.00002379","MEAN_ELEMENT_THEORY":"SGP4","CLASSIFICATION_TYPE":"U","CENTER_NAME":"EARTH","TLE_LINE2":"2 46342  53.0553 318.9333 0001678  46.1244 313.9883 15.06403158124943","RA_OF_ASC_NODE":"318.9333","INCLINATION":"53.0553","EPHEMERIS_TYPE":"0","DECAY_DATE":null,"APOAPSIS":"548.366","EPOCH":"2022-12-05T15:34:12.641952","TLE_LINE1":"1 46342U 20062T   22339.64875743  .00002379  00000-0  17852-3 0  9999","REV_AT_EPOCH":"12494","COUNTRY_CODE":"US","GP_ID":"219624371","OBJECT_TYPE":"PAYLOAD","RCS_SIZE":"LARGE","LAUNCH_DATE":"2020-09-03","FILE":"3682465","SITE":"AFETR","ELEMENT_SET_NO":"999","TIME_SYSTEM":"UTC"},{"MEAN_ANOMALY":"293.7263","ARG_OF_PERICENTER":"66.3896","SEMIMAJOR_AXIS":"6925.346","PERIOD":"95.592","MEAN_MOTION_DDOT":"0.0000000000000","REF_FRAME":"TEME","OBJECT_NAME":"STARLINK-1764","PERIAPSIS":"546.094","MEAN_MOTION":"15.06400687","BSTAR":"0.00009232200000","OBJECT_ID":"2020-062U","NORAD_CAT_ID":"46343","MEAN_MOTION_DOT":"0.00001094","MEAN_ELEMENT_THEORY":"SGP4","ECCENTRICITY":"0.00016140","TLE_LINE2":"2 46343  53.0550 300.4355 0001614  66.3896 293.7263 15.06400687125175","RA_OF_ASC_NODE":"300.4355","CLASSIFICATION_TYPE":"U","CENTER_NAME":"EARTH","APOAPSIS":"548.329","INCLINATION":"53.0550","EPHEMERIS_TYPE":"0","DECAY_DATE":null,"COUNTRY_CODE":"US","TLE_LINE1":"1 46343U 20062U   22339.31149263  .00001094  00000-0  92322-4 0  9994","REV_AT_EPOCH":"12517","EPOCH":"2022-12-05T07:28:32.963232","RCS_SIZE":"LARGE","LAUNCH_DATE":"2020-09-03","GP_ID":"219591985","OBJECT_TYPE":"PAYLOAD","ELEMENT_SET_NO":"999","SITE":"AFETR","TIME_SYSTEM":"UTC","FILE":"3682099"}];
